STARLINK-1107           
1 44972U 20001BL  25292.33336806  .00227531  00000+0  23239-2 0  9991
2 44972  53.0088 140.9269 0006279 178.9021  12.7417 15.63790445  5792
STARLINK-1132           
1 45044U 20006A   25292.00270870  .00000449  00000+0  49066-4 0  9994
2 45044  53.0554 182.6805 0001191  97.7795 262.3330 15.06380421315386
STARLINK-1131           
1 45047U 20006D   25292.04513812  .00019560  00000+0  13263-2 0  9999
2 45047  53.0544 203.0235 0001312  89.1628 270.9511 15.06458572315107
STARLINK-1134           
1 45048U 20006E   25292.11136106  .00072280  00000+0  27349-2 0  9993
2 45048  53.0389 182.3181 0011845 103.0646 257.1674 15.26249535315401
STARLINK-1156           
1 45054U 20006L   25292.01559438  .00023993  00000+0  16223-2 0  9992
2 45054  53.0532 202.6192 0001483  98.7471 261.3686 15.06441466315101
STARLINK-1159           
1 45057U 20006P   25292.03032206 -.00012442  00000+0 -81778-3 0  9993
2 45057  53.0538 202.5522 0001419  92.1796 267.9356 15.06402735315116
STARLINK-1166           
1 45060U 20006S   25292.04140045  .00007655  00000+0  53214-3 0  9991
2 45060  53.0542 202.5046 0001364 102.9440 257.1701 15.06405320315119
STARLINK-1169           
1 45061U 20006T   25292.04877260  .00005086  00000+0  36018-3 0  9997
2 45061  53.0540 202.4718 0001146  90.4586 269.6535 15.06392186315111
STARLINK-1171           
1 45062U 20006U   25292.33336806  .01560884  00000+0  61458-1 0  9993
2 45062  53.0532 200.7217 0001567 100.5008 326.5824 15.21944991  5650
STARLINK-1133           
1 45064U 20006W   25292.11328390  .00000281  00000+0  37770-4 0  9992
2 45064  53.0532 182.1775 0001476  93.1577 266.9581 15.06395697315401
STARLINK-1167           
1 45071U 20006AD  25292.07273532  .00000433  00000+0  47989-4 0  9994
2 45071  53.0535 182.3634 0001196  93.1702 266.9424 15.06395275315393
STARLINK-1168           
1 45072U 20006AE  25292.07642609  .00003445  00000+0  25006-3 0  9991
2 45072  53.0542 182.3464 0001389  80.3647 279.7499 15.06401041315396
STARLINK-1172           
1 45074U 20006AG  25292.08748508  .00001870  00000+0  14443-3 0  9992
2 45074  53.0548 182.2950 0001505  81.9153 278.2006 15.06399447315396
STARLINK-1153           
1 45080U 20006AN  25291.99901729  .00003340  00000+0  24302-3 0  9993
2 45080  53.0538 182.6941 0001224  81.7884 278.3243 15.06400723315386
STARLINK-1151           
1 45081U 20006AP  25291.98426081  .00024857  00000+0  16789-2 0  9991
2 45081  53.0543 182.8340 0001330  99.2373 260.8767 15.06464087315383
STARLINK-1190           
1 45083U 20006AR  25292.33336806  .00309422  00000+0  13289-2 0  9994
2 45083  53.0428 138.9857 0005451 156.0807 358.6026 15.83680606  5847
