[{"OBJECT_NAME":"STARLINK-1107","OBJECT_ID":"2020-001BL","EPOCH":"2025-10-19T08:00:03.000384","MEAN_MOTION":15.63790445,"ECCENTRICITY":0.0006279,"INCLINATION":53.0088,"RA_OF_ASC_NODE":140.9269,"ARG_OF_PERICENTER":178.9021,"MEAN_ANOMALY":12.7417,"EPHEMERIS_TYPE":0,"CLASSIFICATION_TYPE":"U","NORAD_CAT_ID":44972,"ELEMENT_SET_NO":999,"REV_AT_EPOCH":579,"BSTAR":0.002323924,"MEAN_MOTION_DOT":0.00227531,"MEAN_MOTION_DDOT":0},{"OBJECT_NAME":"STARLINK-1132","OBJECT_ID":"2020-006A","EPOCH":"2025-10-19T00:03:54.031680","MEAN_MOTION":15.06380421,"ECCENTRICITY":0.00011914,"INCLINATION":53.0554,"RA_OF_ASC_NODE":182.6805,"ARG_OF_PERICENTER":97.7795,"MEAN_ANOMALY":262.333,"EPHEMERIS_TYPE":0,"CLASSIFICATION_TYPE":"U","NORAD_CAT_ID":45044,"ELEMENT_SET_NO":999,"REV_AT_EPOCH":31538,"BSTAR":4.9066023e-5,"MEAN_MOTION_DOT":4.49e-6,"MEAN_MOTION_DDOT":0},{"OBJECT_NAME":"STARLINK-1131","OBJECT_ID":"2020-006D","EPOCH":"2025-10-19T01:04:59.933568","MEAN_MOTION":15.06458572,"ECCENTRICITY":0.00013129,"INCLINATION":53.0544,"RA_OF_ASC_NODE":203.0235,"ARG_OF_PERICENTER":89.1628,"MEAN_ANOMALY":270.9511,"EPHEMERIS_TYPE":0,"CLASSIFICATION_TYPE":"U","NORAD_CAT_ID":45047,"ELEMENT_SET_NO":999,"REV_AT_EPOCH":31510,"BSTAR":0.0013262606,"MEAN_MOTION_DOT":0.0001956,"MEAN_MOTION_DDOT":0},{"OBJECT_NAME":"STARLINK-1134","OBJECT_ID":"2020-006E","EPOCH":"2025-10-19T02:40:21.595584","MEAN_MOTION":15.26249535,"ECCENTRICITY":0.0011845,"INCLINATION":53.0389,"RA_OF_ASC_NODE":182.3181,"ARG_OF_PERICENTER":103.0646,"MEAN_ANOMALY":257.1674,"EPHEMERIS_TYPE":0,"CLASSIFICATION_TYPE":"U","NORAD_CAT_ID":45048,"ELEMENT_SET_NO":999,"REV_AT_EPOCH":31540,"BSTAR":0.0027348719,"MEAN_MOTION_DOT":0.0007228,"MEAN_MOTION_DDOT":0},{"OBJECT_NAME":"STARLINK-1156","OBJECT_ID":"2020-006L","EPOCH":"2025-10-19T00:22:27.354432","MEAN_MOTION":15.06441466,"ECCENTRICITY":0.00014831,"INCLINATION":53.0532,"RA_OF_ASC_NODE":202.6192,"ARG_OF_PERICENTER":98.7471,"MEAN_ANOMALY":261.3686,"EPHEMERIS_TYPE":0,"CLASSIFICATION_TYPE":"U","NORAD_CAT_ID":45054,"ELEMENT_SET_NO":999,"REV_AT_EPOCH":31510,"BSTAR":0.001622337,"MEAN_MOTION_DOT":0.00023993,"MEAN_MOTION_DDOT":0},{"OBJECT_NAME":"STARLINK-1159","OBJECT_ID":"2020-006P","EPOCH":"2025-10-19T00:43:39.825984","MEAN_MOTION":15.06402735,"ECCENTRICITY":0.00014195,"INCLINATION":53.0538,"RA_OF_ASC_NODE":202.5522,"ARG_OF_PERICENTER":92.1796,"MEAN_ANOMALY":267.9356,"EPHEMERIS_TYPE":0,"CLASSIFICATION_TYPE":"U","NORAD_CAT_ID":45057,"ELEMENT_SET_NO":999,"REV_AT_EPOCH":31511,"BSTAR":-0.00081778204,"MEAN_MOTION_DOT":-0.00012442,"MEAN_MOTION_DDOT":0},{"OBJECT_NAME":"STARLINK-1166","OBJECT_ID":"2020-006S","EPOCH":"2025-10-19T00:59:36.998880","MEAN_MOTION":15.0640532,"ECCENTRICITY":0.00013642,"INCLINATION":53.0542,"RA_OF_ASC_NODE":202.5046,"ARG_OF_PERICENTER":102.944,"MEAN_ANOMALY":257.1701,"EPHEMERIS_TYPE":0,"CLASSIFICATION_TYPE":"U","NORAD_CAT_ID":45060,"ELEMENT_SET_NO":999,"REV_AT_EPOCH":31511,"BSTAR":0.00053213646,"MEAN_MOTION_DOT":7.655e-5,"MEAN_MOTION_DDOT":0},{"OBJECT_NAME":"STARLINK-1169","OBJECT_ID":"2020-006T","EPOCH":"2025-10-19T01:10:13.952640","MEAN_MOTION":15.06392186,"ECCENTRICITY":0.00011467,"INCLINATION":53.054,"RA_OF_ASC_NODE":202.4718,"ARG_OF_PERICENTER":90.4586,"MEAN_ANOMALY":269.6535,"EPHEMERIS_TYPE":0,"CLASSIFICATION_TYPE":"U","NORAD_CAT_ID":45061,"ELEMENT_SET_NO":999,"REV_AT_EPOCH":31511,"BSTAR":0.00036018102,"MEAN_MOTION_DOT":5.086e-5,"MEAN_MOTION_DDOT":0},{"OBJECT_NAME":"STARLINK-1171","OBJECT_ID":"2020-006U","EPOCH":"2025-10-19T08:00:03.000384","MEAN_MOTION":15.21944991,"ECCENTRICITY":0.00015677,"INCLINATION":53.0532,"RA_OF_ASC_NODE":200.7217,"ARG_OF_PERICENTER":100.5008,"MEAN_ANOMALY":326.5824,"EPHEMERIS_TYPE":0,"CLASSIFICATION_TYPE":"U","NORAD_CAT_ID":45062,"ELEMENT_SET_NO":999,"REV_AT_EPOCH":565,"BSTAR":0.061458414,"MEAN_MOTION_DOT":0.01560884,"MEAN_MOTION_DDOT":0},{"OBJECT_NAME":"STARLINK-1133","OBJECT_ID":"2020-006W","EPOCH":"2025-10-19T02:43:07.728960","MEAN_MOTION":15.06395697,"ECCENTRICITY":0.00014761,"INCLINATION":53.0532,"RA_OF_ASC_NODE":182.1775,"ARG_OF_PERICENTER":93.1577,"MEAN_ANOMALY":266.9581,"EPHEMERIS_TYPE":0,"CLASSIFICATION_TYPE":"U","NORAD_CAT_ID":45064,"ELEMENT_SET_NO":999,"REV_AT_EPOCH":31540,"BSTAR":3.777018e-5,"MEAN_MOTION_DOT":2.81e-6,"MEAN_MOTION_DDOT":0},{"OBJECT_NAME":"STARLINK-1167","OBJECT_ID":"2020-006AD","EPOCH":"2025-10-19T01:44:44.331648","MEAN_MOTION":15.06395275,"ECCENTRICITY":0.00011961,"INCLINATION":53.0535,"RA_OF_ASC_NODE":182.3634,"ARG_OF_PERICENTER":93.1702,"MEAN_ANOMALY":266.9424,"EPHEMERIS_TYPE":0,"CLASSIFICATION_TYPE":"U","NORAD_CAT_ID":45071,"ELEMENT_SET_NO":999,"REV_AT_EPOCH":31539,"BSTAR":4.7989232e-5,"MEAN_MOTION_DOT":4.33e-6,"MEAN_MOTION_DDOT":0},{"OBJECT_NAME":"STARLINK-1168","OBJECT_ID":"2020-006AE","EPOCH":"2025-10-19T01:50:03.214176","MEAN_MOTION":15.06401041,"ECCENTRICITY":0.0001389,"INCLINATION":53.0542,"RA_OF_ASC_NODE":182.3464,"ARG_OF_PERICENTER":80.3647,"MEAN_ANOMALY":279.7499,"EPHEMERIS_TYPE":0,"CLASSIFICATION_TYPE":"U","NORAD_CAT_ID":45072,"ELEMENT_SET_NO":999,"REV_AT_EPOCH":31539,"BSTAR":0.00025005881,"MEAN_MOTION_DOT":3.445e-5,"MEAN_MOTION_DDOT":0},{"OBJECT_NAME":"STARLINK-1172","OBJECT_ID":"2020-006AG","EPOCH":"2025-10-19T02:05:58.710912","MEAN_MOTION":15.06399447,"ECCENTRICITY":0.0001505,"INCLINATION":53.0548,"RA_OF_ASC_NODE":182.295,"ARG_OF_PERICENTER":81.9153,"MEAN_ANOMALY":278.2006,"EPHEMERIS_TYPE":0,"CLASSIFICATION_TYPE":"U","NORAD_CAT_ID":45074,"ELEMENT_SET_NO":999,"REV_AT_EPOCH":31539,"BSTAR":0.00014442779,"MEAN_MOTION_DOT":1.87e-5,"MEAN_MOTION_DDOT":0},{"OBJECT_NAME":"STARLINK-1153","OBJECT_ID":"2020-006AN","EPOCH":"2025-10-18T23:58:35.093856","MEAN_MOTION":15.06400723,"ECCENTRICITY":0.00012246,"INCLINATION":53.0538,"RA_OF_ASC_NODE":182.6941,"ARG_OF_PERICENTER":81.7884,"MEAN_ANOMALY":278.3243,"EPHEMERIS_TYPE":0,"CLASSIFICATION_TYPE":"U","NORAD_CAT_ID":45080,"ELEMENT_SET_NO":999,"REV_AT_EPOCH":31538,"BSTAR":0.00024302013,"MEAN_MOTION_DOT":3.34e-5,"MEAN_MOTION_DDOT":0},{"OBJECT_NAME":"STARLINK-1151","OBJECT_ID":"2020-006AP","EPOCH":"2025-10-18T23:37:20.133984","MEAN_MOTION":15.06464087,"ECCENTRICITY":0.00013303,"INCLINATION":53.0543,"RA_OF_ASC_NODE":182.834,"ARG_OF_PERICENTER":99.2373,"MEAN_ANOMALY":260.8767,"EPHEMERIS_TYPE":0,"CLASSIFICATION_TYPE":"U","NORAD_CAT_ID":45081,"ELEMENT_SET_NO":999,"REV_AT_EPOCH":31538,"BSTAR":0.0016788716,"MEAN_MOTION_DOT":0.00024857,"MEAN_MOTION_DDOT":0},{"OBJECT_NAME":"STARLINK-1190","OBJECT_ID":"2020-006AR","EPOCH":"2025-10-19T08:00:03.000384","MEAN_MOTION":15.83680606,"ECCENTRICITY":0.00054514,"INCLINATION":53.0428,"RA_OF_ASC_NODE":138.9857,"ARG_OF_PERICENTER":156.0807,"MEAN_ANOMALY":358.6026,"EPHEMERIS_TYPE":0,"CLASSIFICATION_TYPE":"U","NORAD_CAT_ID":45083,"ELEMENT_SET_NO":999,"REV_AT_EPOCH":584,"BSTAR":0.0013288618,"MEAN_MOTION_DOT":0.00309422,"MEAN_MOTION_DDOT":0}]
